CCSDS_OMM_VERS = 2.0
CREATION_DATE  = 
ORIGINATOR     = 

OBJECT_NAME    = ISS (ZARYA)
OBJECT_ID      = 1998-067A
CENTER_NAME    = EARTH
REF_FRAME      = TEME
TIME_SYSTEM    = UTC
MEAN_ELEMENT_THEORY = SGP/SGP4

EPOCH          = 2025-11-22T06:52:52.156128
MEAN_MOTION    = 15.48986583
ECCENTRICITY   = .0003928
INCLINATION    = 51.6321
RA_OF_ASC_NODE = 243.7129
ARG_OF_PERICENTER = 154.7163
MEAN_ANOMALY   = 205.4018

EPHEMERIS_TYPE = 0
CLASSIFICATION_TYPE = U
NORAD_CAT_ID   = 25544
ELEMENT_SET_NO = 999
REV_AT_EPOCH   = 53968
BSTAR          = .29634E-3
MEAN_MOTION_DOT = .15903E-3
MEAN_MOTION_DDOT = 0

CCSDS_OMM_VERS = 2.0
CREATION_DATE  = 
ORIGINATOR     = 

OBJECT_NAME    = CSS (TIANHE)
OBJECT_ID      = 2021-035A
CENTER_NAME    = EARTH
REF_FRAME      = TEME
TIME_SYSTEM    = UTC
MEAN_ELEMENT_THEORY = SGP/SGP4

EPOCH          = 2025-11-22T09:40:27.749280
MEAN_MOTION    = 15.59436574
ECCENTRICITY   = .0007784
INCLINATION    = 41.4655
RA_OF_ASC_NODE = 140.0755
ARG_OF_PERICENTER = 217.1176
MEAN_ANOMALY   = 142.9125

EPHEMERIS_TYPE = 0
CLASSIFICATION_TYPE = U
NORAD_CAT_ID   = 48274
ELEMENT_SET_NO = 999
REV_AT_EPOCH   = 26085
BSTAR          = .26989E-3
MEAN_MOTION_DOT = .21722E-3
MEAN_MOTION_DDOT = 0

CCSDS_OMM_VERS = 2.0
CREATION_DATE  = 
ORIGINATOR     = 

OBJECT_NAME    = ISS (NAUKA)
OBJECT_ID      = 2021-066A
CENTER_NAME    = EARTH
REF_FRAME      = TEME
TIME_SYSTEM    = UTC
MEAN_ELEMENT_THEORY = SGP/SGP4

EPOCH          = 2025-11-20T20:48:58.837824
MEAN_MOTION    = 15.48935269
ECCENTRICITY   = .00039608
INCLINATION    = 51.6324
RA_OF_ASC_NODE = 250.7347
ARG_OF_PERICENTER = 150.1460
MEAN_ANOMALY   = 209.9755

EPHEMERIS_TYPE = 0
CLASSIFICATION_TYPE = U
NORAD_CAT_ID   = 49044
ELEMENT_SET_NO = 999
REV_AT_EPOCH   = 23044
BSTAR          = .26736525E-3
MEAN_MOTION_DOT = .14275E-3
MEAN_MOTION_DDOT = 0

CCSDS_OMM_VERS = 2.0
CREATION_DATE  = 
ORIGINATOR     = 

OBJECT_NAME    = CSS (WENTIAN)
OBJECT_ID      = 2022-085A
CENTER_NAME    = EARTH
REF_FRAME      = TEME
TIME_SYSTEM    = UTC
MEAN_ELEMENT_THEORY = SGP/SGP4

EPOCH          = 2025-11-20T20:47:07.031040
MEAN_MOTION    = 15.59361906
ECCENTRICITY   = .00075396
INCLINATION    = 41.4654
RA_OF_ASC_NODE = 149.4104
ARG_OF_PERICENTER = 206.0978
MEAN_ANOMALY   = 153.9481

EPHEMERIS_TYPE = 0
CLASSIFICATION_TYPE = U
NORAD_CAT_ID   = 53239
ELEMENT_SET_NO = 999
REV_AT_EPOCH   = 17384
BSTAR          = .24199323E-3
MEAN_MOTION_DOT = .19378E-3
MEAN_MOTION_DDOT = 0

CCSDS_OMM_VERS = 2.0
CREATION_DATE  = 
ORIGINATOR     = 

OBJECT_NAME    = CSS (MENGTIAN)
OBJECT_ID      = 2022-143A
CENTER_NAME    = EARTH
REF_FRAME      = TEME
TIME_SYSTEM    = UTC
MEAN_ELEMENT_THEORY = SGP/SGP4

EPOCH          = 2025-11-20T20:47:07.031040
MEAN_MOTION    = 15.59361906
ECCENTRICITY   = .00075396
INCLINATION    = 41.4654
RA_OF_ASC_NODE = 149.4104
ARG_OF_PERICENTER = 206.0978
MEAN_ANOMALY   = 153.9481

EPHEMERIS_TYPE = 0
CLASSIFICATION_TYPE = U
NORAD_CAT_ID   = 54216
ELEMENT_SET_NO = 999
REV_AT_EPOCH   = 15864
BSTAR          = .24199323E-3
MEAN_MOTION_DOT = .19378E-3
MEAN_MOTION_DDOT = 0

CCSDS_OMM_VERS = 2.0
CREATION_DATE  = 
ORIGINATOR     = 

OBJECT_NAME    = SOYUZ-MS 27
OBJECT_ID      = 2025-072A
CENTER_NAME    = EARTH
REF_FRAME      = TEME
TIME_SYSTEM    = UTC
MEAN_ELEMENT_THEORY = SGP/SGP4

EPOCH          = 2025-11-20T20:48:58.837824
MEAN_MOTION    = 15.48935269
ECCENTRICITY   = .00039608
INCLINATION    = 51.6324
RA_OF_ASC_NODE = 250.7347
ARG_OF_PERICENTER = 150.1460
MEAN_ANOMALY   = 209.9755

EPHEMERIS_TYPE = 0
CLASSIFICATION_TYPE = U
NORAD_CAT_ID   = 63520
ELEMENT_SET_NO = 999
REV_AT_EPOCH   = 2020
BSTAR          = .26736525E-3
MEAN_MOTION_DOT = .14275E-3
MEAN_MOTION_DDOT = 0

CCSDS_OMM_VERS = 2.0
CREATION_DATE  = 
ORIGINATOR     = 

OBJECT_NAME    = SHENZHOU-20 (SZ-20)
OBJECT_ID      = 2025-082A
CENTER_NAME    = EARTH
REF_FRAME      = TEME
TIME_SYSTEM    = UTC
MEAN_ELEMENT_THEORY = SGP/SGP4

EPOCH          = 2025-11-20T20:47:07.031040
MEAN_MOTION    = 15.59361906
ECCENTRICITY   = .00075396
INCLINATION    = 41.4654
RA_OF_ASC_NODE = 149.4104
ARG_OF_PERICENTER = 206.0978
MEAN_ANOMALY   = 153.9481

EPHEMERIS_TYPE = 0
CLASSIFICATION_TYPE = U
NORAD_CAT_ID   = 63632
ELEMENT_SET_NO = 999
REV_AT_EPOCH   = 25530
BSTAR          = .24199323E-3
MEAN_MOTION_DOT = .19378E-3
MEAN_MOTION_DDOT = 0

CCSDS_OMM_VERS = 2.0
CREATION_DATE  = 
ORIGINATOR     = 

OBJECT_NAME    = PROGRESS-MS 31
OBJECT_ID      = 2025-146A
CENTER_NAME    = EARTH
REF_FRAME      = TEME
TIME_SYSTEM    = UTC
MEAN_ELEMENT_THEORY = SGP/SGP4

EPOCH          = 2025-11-20T20:48:58.837824
MEAN_MOTION    = 15.48935269
ECCENTRICITY   = .00039608
INCLINATION    = 51.6324
RA_OF_ASC_NODE = 250.7347
ARG_OF_PERICENTER = 150.1460
MEAN_ANOMALY   = 209.9755

EPHEMERIS_TYPE = 0
CLASSIFICATION_TYPE = U
NORAD_CAT_ID   = 64751
ELEMENT_SET_NO = 999
REV_AT_EPOCH   = 675
BSTAR          = .26736525E-3
MEAN_MOTION_DOT = .14275E-3
MEAN_MOTION_DDOT = 0

CCSDS_OMM_VERS = 2.0
CREATION_DATE  = 
ORIGINATOR     = 

OBJECT_NAME    = TIANZHOU-9
OBJECT_ID      = 2025-149A
CENTER_NAME    = EARTH
REF_FRAME      = TEME
TIME_SYSTEM    = UTC
MEAN_ELEMENT_THEORY = SGP/SGP4

EPOCH          = 2025-11-20T20:47:07.031040
MEAN_MOTION    = 15.59361906
ECCENTRICITY   = .00075396
INCLINATION    = 41.4654
RA_OF_ASC_NODE = 149.4104
ARG_OF_PERICENTER = 206.0978
MEAN_ANOMALY   = 153.9481

EPHEMERIS_TYPE = 0
CLASSIFICATION_TYPE = U
NORAD_CAT_ID   = 64786
ELEMENT_SET_NO = 999
REV_AT_EPOCH   = 25530
BSTAR          = .24199323E-3
MEAN_MOTION_DOT = .19378E-3
MEAN_MOTION_DDOT = 0

CCSDS_OMM_VERS = 2.0
CREATION_DATE  = 
ORIGINATOR     = 

OBJECT_NAME    = CREW DRAGON 11
OBJECT_ID      = 2025-166A
CENTER_NAME    = EARTH
REF_FRAME      = TEME
TIME_SYSTEM    = UTC
MEAN_ELEMENT_THEORY = SGP/SGP4

EPOCH          = 2025-11-20T20:48:58.837824
MEAN_MOTION    = 15.48935269
ECCENTRICITY   = .00039608
INCLINATION    = 51.6324
RA_OF_ASC_NODE = 250.7347
ARG_OF_PERICENTER = 150.1460
MEAN_ANOMALY   = 209.9755

EPHEMERIS_TYPE = 0
CLASSIFICATION_TYPE = U
NORAD_CAT_ID   = 65077
ELEMENT_SET_NO = 999
REV_AT_EPOCH   = 214
BSTAR          = .26736525E-3
MEAN_MOTION_DOT = .14275E-3
MEAN_MOTION_DDOT = 0

CCSDS_OMM_VERS = 2.0
CREATION_DATE  = 
ORIGINATOR     = 

OBJECT_NAME    = DRAGON CRS-33
OBJECT_ID      = 2025-186A
CENTER_NAME    = EARTH
REF_FRAME      = TEME
TIME_SYSTEM    = UTC
MEAN_ELEMENT_THEORY = SGP/SGP4

EPOCH          = 2025-11-20T20:48:58.837824
MEAN_MOTION    = 15.48935269
ECCENTRICITY   = .00039608
INCLINATION    = 51.6324
RA_OF_ASC_NODE = 250.7347
ARG_OF_PERICENTER = 150.1460
MEAN_ANOMALY   = 209.9755

EPHEMERIS_TYPE = 0
CLASSIFICATION_TYPE = U
NORAD_CAT_ID   = 65304
ELEMENT_SET_NO = 999
REV_AT_EPOCH   = 11
BSTAR          = .26736525E-3
MEAN_MOTION_DOT = .14275E-3
MEAN_MOTION_DDOT = 0

